CCSDS_OMM_VERS = 2.0
CREATION_DATE  = 
ORIGINATOR     = 

OBJECT_NAME    = STARLINK-35836
OBJECT_ID      = 2025-268Q
CENTER_NAME    = EARTH
REF_FRAME      = TEME
TIME_SYSTEM    = UTC
MEAN_ELEMENT_THEORY = SGP/SGP4

EPOCH          = 2025-11-26T16:00:01.999584
MEAN_MOTION    = 15.96085222
ECCENTRICITY   = .00018859
INCLINATION    = 42.9979
RA_OF_ASC_NODE = 217.8771
ARG_OF_PERICENTER = 261.1598
MEAN_ANOMALY   = 3.3975

EPHEMERIS_TYPE = 0
CLASSIFICATION_TYPE = U
NORAD_CAT_ID   = 66571
ELEMENT_SET_NO = 999
REV_AT_EPOCH   = 208
BSTAR          = -.34942014E-2
MEAN_MOTION_DOT = -.1489879E-1
MEAN_MOTION_DDOT = .65266736E-3

CCSDS_OMM_VERS = 2.0
CREATION_DATE  = 
ORIGINATOR     = 

OBJECT_NAME    = STARLINK-35870
OBJECT_ID      = 2025-268R
CENTER_NAME    = EARTH
REF_FRAME      = TEME
TIME_SYSTEM    = UTC
MEAN_ELEMENT_THEORY = SGP/SGP4

EPOCH          = 2025-11-26T16:00:01.999584
MEAN_MOTION    = 15.96183412
ECCENTRICITY   = .00019123
INCLINATION    = 42.9982
RA_OF_ASC_NODE = 217.8734
ARG_OF_PERICENTER = 258.0805
MEAN_ANOMALY   = 8.0407

EPHEMERIS_TYPE = 0
CLASSIFICATION_TYPE = U
NORAD_CAT_ID   = 66572
ELEMENT_SET_NO = 999
REV_AT_EPOCH   = 208
BSTAR          = -.34918721E-2
MEAN_MOTION_DOT = -.149682E-1
MEAN_MOTION_DDOT = .65892662E-3

CCSDS_OMM_VERS = 2.0
CREATION_DATE  = 
ORIGINATOR     = 

OBJECT_NAME    = STARLINK-35650
OBJECT_ID      = 2025-268S
CENTER_NAME    = EARTH
REF_FRAME      = TEME
TIME_SYSTEM    = UTC
MEAN_ELEMENT_THEORY = SGP/SGP4

EPOCH          = 2025-11-26T16:00:01.999584
MEAN_MOTION    = 15.96274594
ECCENTRICITY   = .00017485
INCLINATION    = 42.9980
RA_OF_ASC_NODE = 217.8697
ARG_OF_PERICENTER = 251.1668
MEAN_ANOMALY   = 16.3707

EPHEMERIS_TYPE = 0
CLASSIFICATION_TYPE = U
NORAD_CAT_ID   = 66573
ELEMENT_SET_NO = 999
REV_AT_EPOCH   = 208
BSTAR          = -.34965639E-2
MEAN_MOTION_DOT = -.1506164E-1
MEAN_MOTION_DDOT = .66713003E-3

CCSDS_OMM_VERS = 2.0
CREATION_DATE  = 
ORIGINATOR     = 

OBJECT_NAME    = STARLINK-35812
OBJECT_ID      = 2025-268T
CENTER_NAME    = EARTH
REF_FRAME      = TEME
TIME_SYSTEM    = UTC
MEAN_ELEMENT_THEORY = SGP/SGP4

EPOCH          = 2025-11-26T16:00:01.999584
MEAN_MOTION    = 15.96347305
ECCENTRICITY   = .00019812
INCLINATION    = 42.9983
RA_OF_ASC_NODE = 217.8666
ARG_OF_PERICENTER = 259.1637
MEAN_ANOMALY   = 9.5783

EPHEMERIS_TYPE = 0
CLASSIFICATION_TYPE = U
NORAD_CAT_ID   = 66574
ELEMENT_SET_NO = 999
REV_AT_EPOCH   = 208
BSTAR          = -.34900887E-2
MEAN_MOTION_DOT = -.1509403E-1
MEAN_MOTION_DDOT = .67026797E-3

CCSDS_OMM_VERS = 2.0
CREATION_DATE  = 
ORIGINATOR     = 

OBJECT_NAME    = STARLINK-35810
OBJECT_ID      = 2025-268U
CENTER_NAME    = EARTH
REF_FRAME      = TEME
TIME_SYSTEM    = UTC
MEAN_ELEMENT_THEORY = SGP/SGP4

EPOCH          = 2025-11-26T16:00:01.999584
MEAN_MOTION    = 15.96443311
ECCENTRICITY   = .00019683
INCLINATION    = 42.9983
RA_OF_ASC_NODE = 217.8629
ARG_OF_PERICENTER = 257.6949
MEAN_ANOMALY   = 12.5623

EPHEMERIS_TYPE = 0
CLASSIFICATION_TYPE = U
NORAD_CAT_ID   = 66575
ELEMENT_SET_NO = 999
REV_AT_EPOCH   = 208
BSTAR          = -.34898796E-2
MEAN_MOTION_DOT = -.1517177E-1
MEAN_MOTION_DDOT = .67729647E-3

CCSDS_OMM_VERS = 2.0
CREATION_DATE  = 
ORIGINATOR     = 

OBJECT_NAME    = STARLINK-35814
OBJECT_ID      = 2025-268V
CENTER_NAME    = EARTH
REF_FRAME      = TEME
TIME_SYSTEM    = UTC
MEAN_ELEMENT_THEORY = SGP/SGP4

EPOCH          = 2025-11-26T16:00:01.999584
MEAN_MOTION    = 15.96536543
ECCENTRICITY   = .00019688
INCLINATION    = 42.9982
RA_OF_ASC_NODE = 217.8591
ARG_OF_PERICENTER = 259.2361
MEAN_ANOMALY   = 12.4903

EPHEMERIS_TYPE = 0
CLASSIFICATION_TYPE = U
NORAD_CAT_ID   = 66576
ELEMENT_SET_NO = 999
REV_AT_EPOCH   = 208
BSTAR          = -.34946985E-2
MEAN_MOTION_DOT = -.1526945E-1
MEAN_MOTION_DDOT = .68599438E-3

CCSDS_OMM_VERS = 2.0
CREATION_DATE  = 
ORIGINATOR     = 

OBJECT_NAME    = STARLINK-35815
OBJECT_ID      = 2025-268W
CENTER_NAME    = EARTH
REF_FRAME      = TEME
TIME_SYSTEM    = UTC
MEAN_ELEMENT_THEORY = SGP/SGP4

EPOCH          = 2025-11-26T16:00:01.999584
MEAN_MOTION    = 15.96629637
ECCENTRICITY   = .00019758
INCLINATION    = 42.9982
RA_OF_ASC_NODE = 217.8553
ARG_OF_PERICENTER = 258.9682
MEAN_ANOMALY   = 14.2694

EPHEMERIS_TYPE = 0
CLASSIFICATION_TYPE = U
NORAD_CAT_ID   = 66577
ELEMENT_SET_NO = 999
REV_AT_EPOCH   = 208
BSTAR          = -.34838801E-2
MEAN_MOTION_DOT = -.152999E-1
MEAN_MOTION_DDOT = .68917397E-3

CCSDS_OMM_VERS = 2.0
CREATION_DATE  = 
ORIGINATOR     = 

OBJECT_NAME    = STARLINK-35743
OBJECT_ID      = 2025-268X
CENTER_NAME    = EARTH
REF_FRAME      = TEME
TIME_SYSTEM    = UTC
MEAN_ELEMENT_THEORY = SGP/SGP4

EPOCH          = 2025-11-26T16:00:01.999584
MEAN_MOTION    = 15.96706932
ECCENTRICITY   = .00019712
INCLINATION    = 42.9982
RA_OF_ASC_NODE = 217.8523
ARG_OF_PERICENTER = 261.3046
MEAN_ANOMALY   = 13.1399

EPHEMERIS_TYPE = 0
CLASSIFICATION_TYPE = U
NORAD_CAT_ID   = 66578
ELEMENT_SET_NO = 999
REV_AT_EPOCH   = 208
BSTAR          = -.34941402E-2
MEAN_MOTION_DOT = -.1540895E-1
MEAN_MOTION_DDOT = .69879526E-3

CCSDS_OMM_VERS = 2.0
CREATION_DATE  = 
ORIGINATOR     = 

OBJECT_NAME    = STARLINK-35868
OBJECT_ID      = 2025-268Y
CENTER_NAME    = EARTH
REF_FRAME      = TEME
TIME_SYSTEM    = UTC
MEAN_ELEMENT_THEORY = SGP/SGP4

EPOCH          = 2025-11-26T16:00:01.999584
MEAN_MOTION    = 15.96806008
ECCENTRICITY   = .00019614
INCLINATION    = 42.9982
RA_OF_ASC_NODE = 217.8482
ARG_OF_PERICENTER = 258.9034
MEAN_ANOMALY   = 17.1382

EPHEMERIS_TYPE = 0
CLASSIFICATION_TYPE = U
NORAD_CAT_ID   = 66579
ELEMENT_SET_NO = 999
REV_AT_EPOCH   = 208
BSTAR          = -.34835228E-2
MEAN_MOTION_DOT = -.1544569E-1
MEAN_MOTION_DDOT = .70258427E-3

CCSDS_OMM_VERS = 2.0
CREATION_DATE  = 
ORIGINATOR     = 

OBJECT_NAME    = STARLINK-35872
OBJECT_ID      = 2025-268Z
CENTER_NAME    = EARTH
REF_FRAME      = TEME
TIME_SYSTEM    = UTC
MEAN_ELEMENT_THEORY = SGP/SGP4

EPOCH          = 2025-11-26T16:00:01.999584
MEAN_MOTION    = 15.96878481
ECCENTRICITY   = .00019951
INCLINATION    = 42.9982
RA_OF_ASC_NODE = 217.8452
ARG_OF_PERICENTER = 257.2879
MEAN_ANOMALY   = 19.9101

EPHEMERIS_TYPE = 0
CLASSIFICATION_TYPE = U
NORAD_CAT_ID   = 66580
ELEMENT_SET_NO = 999
REV_AT_EPOCH   = 208
BSTAR          = -.34757342E-2
MEAN_MOTION_DOT = -.1547263E-1
MEAN_MOTION_DDOT = .70537074E-3

CCSDS_OMM_VERS = 2.0
CREATION_DATE  = 
ORIGINATOR     = 

OBJECT_NAME    = STARLINK-35744
OBJECT_ID      = 2025-268AA
CENTER_NAME    = EARTH
REF_FRAME      = TEME
TIME_SYSTEM    = UTC
MEAN_ELEMENT_THEORY = SGP/SGP4

EPOCH          = 2025-11-26T16:00:01.999584
MEAN_MOTION    = 15.96946037
ECCENTRICITY   = .00019813
INCLINATION    = 42.9982
RA_OF_ASC_NODE = 217.8420
ARG_OF_PERICENTER = 258.2200
MEAN_ANOMALY   = 20.1348

EPHEMERIS_TYPE = 0
CLASSIFICATION_TYPE = U
NORAD_CAT_ID   = 66581
ELEMENT_SET_NO = 999
REV_AT_EPOCH   = 203
BSTAR          = -.34627431E-2
MEAN_MOTION_DOT = -.1547233E-1
MEAN_MOTION_DDOT = .70583929E-3

CCSDS_OMM_VERS = 2.0
CREATION_DATE  = 
ORIGINATOR     = 

OBJECT_NAME    = STARLINK-35746
OBJECT_ID      = 2025-268AB
CENTER_NAME    = EARTH
REF_FRAME      = TEME
TIME_SYSTEM    = UTC
MEAN_ELEMENT_THEORY = SGP/SGP4

EPOCH          = 2025-11-26T16:00:01.999584
MEAN_MOTION    = 15.97047788
ECCENTRICITY   = .0001968
INCLINATION    = 42.9980
RA_OF_ASC_NODE = 217.8381
ARG_OF_PERICENTER = 258.8954
MEAN_ANOMALY   = 21.0518

EPHEMERIS_TYPE = 0
CLASSIFICATION_TYPE = U
NORAD_CAT_ID   = 66582
ELEMENT_SET_NO = 999
REV_AT_EPOCH   = 208
BSTAR          = -.34644974E-2
MEAN_MOTION_DOT = -.1556618E-1
MEAN_MOTION_DDOT = .71449566E-3

